satname,norad_id,inclination_deg,eccentricity,mean_motion_rev_per_day,perigee_km,apogee_km,l1,l2
STARLINK-1351,45697,53.0433,0.0002048,15.66878776,366.4592506033696,369.2224031212518,1 45697U 20035AS  26163.06241228  .00047870  00000+0  44632-3 0  9991,2 45697  53.0433 281.6143 0002048 156.0904 204.0207 15.66878776334102
STARLINK-1400,45700,53.0425,0.0002048,15.65646979,369.9963972336691,372.7609988635886,1 45700U 20035AV  26163.78227958  .00052303  00000+0  51156-3 0  9995,2 45700  53.0425 280.6823 0002048  44.7930 315.3249 15.65646979334170
STARLINK-1403,45701,53.1544,0.000145,15.34348738,461.8636619881563,463.847549843872,1 45701U 20035AW  26162.73649406  .00044986  00000+0  13367-2 0  9995,2 45701  53.1544 319.1390 0001450 243.4289 116.6565 15.34348738333554
STARLINK-1407,45703,53.0269,0.0006831,15.74861643,340.4323292400859,349.617513056759,1 45703U 20035AY  26163.29833105  .00092327  00000+0  60901-3 0  9999,2 45703  53.0269 209.3140 0006831  40.3033 319.8491 15.74861643335131
STARLINK-1411,45706,53.0262,0.0011725,15.98014937,272.1202092420326,287.7333688273184,1 45706U 20035BB  26163.83335647  .00591167  16140-3  12573-2 0  9993,2 45706  53.0262 227.1720 0011725 359.1778 215.8330 15.98014937  6048
STARLINK-1423,45710,53.0437,0.0004894,15.69636729,356.6388189937479,363.2340452691169,1 45710U 20035BF  26162.61872365  .00058365  00000+0  48439-3 0  9999,2 45710  53.0437 282.7322 0004894  95.0173 265.1403 15.69636729334035
STARLINK-1433,45711,53.0429,0.0004372,15.69316925,357.90552947711967,363.7981012972941,1 45711U 20035BG  26163.81537682  .00055163  00000+0  46440-3 0  9996,2 45711  53.0429 275.4348 0004372 104.8006 255.3495 15.69316925334247
STARLINK-1434,45712,53.0508,0.0001176,15.34819721,460.6516891023057,462.2603613818428,1 45712U 20035BH  26163.10148495  .00042548  00000+0  12465-2 0  9991,2 45712  53.0508 299.9403 0001176  46.8805 313.2295 15.34819721333852
STARLINK-1465,45731,53.0428,0.0001371,15.68914699,361.0794855096374,362.9276320508543,1 45731U 20038B   26163.19237170  .00063201  00000+0  53989-3 0  9999,2 45731  53.0428 124.1094 0001371 105.4395 254.6773 15.68914699331115
STARLINK-1471,45735,53.0461,0.0002692,15.53807072,403.79635416854853,407.4487303060878,1 45735U 20038F   26163.85999984  .00026471  00000+0  41100-3 0  9994,2 45735  53.0461  44.3351 0002692 132.9626 227.1610 15.53807072332301
STARLINK-1480,45741,53.0466,0.0006394,15.65750871,366.76467900694934,375.39557787079684,1 45741U 20038M   26163.12226321  .00047762  00000+0  46557-3 0  9996,2 45741  53.0466 118.2611 0006394  47.7598 312.3959 15.65750871331205
STARLINK-1500,45744,53.0338,0.000192,15.39424017,446.5008464337943,449.1220106303508,1 45744U 20038Q   26163.14632811  .00024078  00000+0  61390-3 0  9993,2 45744  53.0338 108.0333 0001920 128.9599 231.1576 15.39424017331346
STARLINK-1504,45746,53.0209,0.0003054,15.59431864,387.23349266571586,391.36704334901424,1 45746U 20038S   26163.85584620  .00036021  00000+0  45143-3 0  9996,2 45746  53.0209  40.8662 0003054 120.4711 239.6602 15.59431864332339
STARLINK-1506,45747,53.0753,0.00017,15.28383818,479.4772380846198,481.80922336306594,1 45747U 20038T   26163.21123635  .00007342  00000+0  27445-3 0  9991,2 45747  53.0753 124.3264 0001700 162.4537 197.6521 15.28383818331139
STARLINK-1464,45751,53.0453,0.0004711,15.54386768,400.7407706381273,407.1308396351269,1 45751U 20038X   26163.11361702  .00027296  00000+0  41463-3 0  9990,2 45751  53.0453 111.7319 0004711  53.1010 307.0431 15.54386768331299
STARLINK-1477,45754,53.0449,0.0001465,15.19133903,507.447966709653,509.46573870849716,1 45754U 20038AA  26163.25375499  .00025100  00000+0  11911-2 0  9992,2 45754  53.0449 141.5396 0001465  10.2840 349.8184 15.19133903330886
STARLINK-1478,45755,53.0441,0.0004534,15.68926681,358.9132779578158,365.0252062981781,1 45755U 20038AB  26163.09211163  .00056596  00000+0  48394-3 0  9991,2 45755  53.0441  96.1371 0004534  91.0434 269.1101 15.68926681331491
STARLINK-1493,45759,53.0454,0.000676,15.65570088,367.03687020201596,376.1625142098783,1 45759U 20038AF  26163.82661455  .00052728  00000+0  51676-3 0  9999,2 45759  53.0454 102.3258 0006760  46.4170 313.7405 15.65570088331471
STARLINK-1494,45760,53.031,0.0009285,16.23372641,204.29321102212634,216.52814405931986,1 45760U 20038AG  26163.87260694  .01763543  11899-4  67187-3 0  9998,2 45760  53.0310  27.8098 0009285 260.7358  99.2631 16.23372641332525
STARLINK-1502,45764,53.0437,0.000559,15.62524877,376.5885685562689,384.14457554982346,1 45764U 20038AL  26163.12099247  .00066281  00000+0  72984-3 0  9996,2 45764  53.0437 109.6952 0005590  19.0725 341.0496 15.62524877331321
STARLINK-1470,45772,53.0427,0.0003948,15.35648996,456.2941780995925,461.69277632439935,1 45772U 20038AU  26163.07614650  .00042707  00000+0  12183-2 0  9991,2 45772  53.0427  93.5605 0003948  52.5618 307.5742 15.35648996331547
STARLINK-1482,45773,53.1547,0.000486,15.3821827,448.0588747195452,454.697163318031,1 45773U 20038AV  26163.14417331  .00047441  00000+0  12439-2 0  9991,2 45773  53.1547 109.6406 0004860  46.2968 313.8439 15.38218270331344
STARLINK-1496,45780,53.046,5.91e-05,15.69168499,360.87846525006535,361.67506395704186,1 45780U 20038BC  26163.01242113  .00055480  00000+0  47005-3 0  9999,2 45780  53.0460  80.5479 0000591 155.7882 204.3162 15.69168499331708
STARLINK-1513,45786,53.1602,0.0001257,15.31702647,469.87120182129183,471.59300751420506,1 45786U 20038BJ  26163.14381289 -.00000183  00000+0  58788-5 0  9990,2 45786  53.1602 111.7986 0001257  90.8956 269.2190 15.31702647331310
STARLINK-1522,46027,53.0631,0.0002544,15.13337519,524.2739098415859,527.7867501790952,1 46027U 20055A   26163.84747294  .00015946  00000+0  89917-3 0  9995,2 46027  53.0631  56.1685 0002544  75.8530 284.2745 15.13337519323270
STARLINK-1523,46028,53.1615,8.2e-05,15.30639016,473.3426926856582,474.46642750151295,1 46028U 20055B   26163.81424377  .00014574  00000+0  49649-3 0  9991,2 46028  53.1615  44.8390 0000820 115.8996 244.2089 15.30639016323461
STARLINK-1526,46029,53.1609,0.0001434,15.30193897,474.25051863795215,476.2160652376797,1 46029U 20055C   26163.81019524  .00014932  00000+0  51537-3 0  9993,2 46029  53.1609  44.8895 0001434  85.3727 274.7437 15.30193897323456
STARLINK-1555,46032,53.1618,0.0001472,15.3020842,474.18111920838146,476.1987386562587,1 46032U 20055F   26163.85970949  .00002920  00000+0  11064-3 0  9993,2 46032  53.1618  44.6381 0001472 105.7410 254.3753 15.30208420323461
STARLINK-1556,46033,53.158,0.0001418,15.30206499,474.2238620736098,476.16746721730306,1 46033U 20055G   26163.84285917  .00008211  00000+0  28900-3 0  9993,2 46033  53.1580  44.7360 0001418 133.4617 226.6501 15.30206499323439
STARLINK-1557,46034,53.1597,9.91e-05,15.30199354,474.537830878332,475.8961656407864,1 46034U 20055H   26163.84601847  .00008697  00000+0  30542-3 0  9991,2 46034  53.1597  44.7205 0000991  88.9684 271.1431 15.30199354323437
STARLINK-1558,46035,53.1602,0.0001027,15.30217644,474.45855427471724,475.8662219690377,1 46035U 20055J   26163.85337470 -.00003222  00000+0 -96651-4 0  9996,2 46035  53.1602  44.6841 0001027  89.6313 270.4806 15.30217644323462
STARLINK-1560,46036,53.1602,0.0001241,15.30196202,474.3759071870563,476.07691198531575,1 46036U 20055K   26163.83970352  .00000629  00000+0  33348-4 0  9997,2 46036  53.1602  44.7576 0001241  91.9155 268.1988 15.30196202323468
STARLINK-1569,46039,53.1633,0.0001803,15.30210831,473.94707664902216,476.4183837437313,1 46039U 20055N   26163.85653574 -.00003295  00000+0 -99118-4 0  9997,2 46039  53.1633  44.6552 0001803 112.9344 247.1848 15.30210831323452
STARLINK-1582,46043,53.1585,8.8e-05,15.31708412,470.11222063720834,471.3176185750599,1 46043U 20055S   26163.86883459  .00005453  00000+0  18731-3 0  9997,2 46043  53.1585  43.9483 0000880  78.9533 281.1567 15.31708412323468
STARLINK-1591,46045,53.1606,0.0001365,15.30197928,474.2857726428756,476.15673944677474,1 46045U 20055U   26163.82389189  .00004395  00000+0  16043-3 0  9994,2 46045  53.1606  44.8188 0001365 124.0856 236.0274 15.30197928323430
STARLINK-1524,46047,53.1618,0.0001177,15.31727693,469.85134197123716,471.4635481836085,1 46047U 20055W   26163.83814691  .00003943  00000+0  13863-3 0  9993,2 46047  53.1618  31.4058 0001177 108.2630 251.8499 15.31727693323644
STARLINK-1527,46048,53.1599,9.19e-05,15.31715175,470.0653520750393,471.32416735247443,1 46048U 20055X   26163.83349999  .00001238  00000+0  51633-4 0  9991,2 46048  53.1599  31.4011 0000919  49.4208 310.6873 15.31715175323611
STARLINK-1540,46051,53.1601,0.0001079,15.31715658,469.9543311485213,471.43230873156426,1 46051U 20055AA  26163.81954097  .00000023  00000+0  12485-4 0  9997,2 46051  53.1601  31.6723 0001079 105.8767 254.2353 15.31715658323652
STARLINK-1541,46052,53.1572,0.0005048,15.86095708,309.8634579712134,316.6190734682841,1 46052U 20055AB  26163.83335647  .00230710  00000+0  89145-3 0  9998,2 46052  53.1572  13.5107 0005048 259.7320 295.7071 15.86095708  5931
STARLINK-1543,46053,53.1595,0.0001238,15.31711312,469.85838815236457,471.5541617472418,1 46053U 20055AC  26163.85680756  .00003131  00000+0  11259-3 0  9991,2 46053  53.1595  31.3049 0001238  77.7422 282.3718 15.31711312323656
STARLINK-1548,46054,53.1604,0.0001262,15.31712145,469.83946814390674,471.56811555976947,1 46054U 20055AD  26163.87079770  .00002903  00000+0  10524-3 0  9992,2 46054  53.1604  31.3118 0001262  96.6759 263.4386 15.31712145323651
STARLINK-1554,46055,53.1605,0.0001118,15.31736734,469.86480306555677,471.39618747749955,1 46055U 20055AE  26163.85214411  .00007783  00000+0  26201-3 0  9994,2 46055  53.1605  31.3475 0001118 101.1041 259.0086 15.31736734323653
STARLINK-1564,46058,53.1627,0.0001229,15.30223392,474.3029576279223,475.98749439907624,1 46058U 20055AH  26163.84656215  .00001537  00000+0  63959-4 0  9991,2 46058  53.1627  32.3775 0001229  65.0522 295.0606 15.30223392323635
